{
  "type": "FeatureCollection",
  "features": [
    {
      "type": "Feature",
      "properties": {
        "norad_id": 37530,
        "name": "COSMOS 2251 DEB",
        "group": "cosmos-2251-debris",
        "lat": -72.30419219725152,
        "lon": -146.4503985921643,
        "alt_km": 795.1910329683415,
        "timestamp": "2025-12-14T20:40:32.170784+00:00",
        "meta_object_name": "COSMOS 2251 DEB",
        "meta_object_id": "1993-036BNK",
        "meta_epoch": "2025-12-13T05:02:01.167072",
        "meta_mean_motion": 14.34504437,
        "meta_eccentricity": 0.00258213,
        "meta_inclination": 74.0355,
        "meta_ra_of_asc_node": 332.7814,
        "meta_arg_of_pericenter": 34.4483,
        "meta_mean_anomaly": 341.4849,
        "meta_ephemeris_type": 0,
        "meta_classification_type": "U",
        "meta_norad_cat_id": 37530,
        "meta_element_set_no": 999,
        "meta_rev_at_epoch": 85239,
        "meta_bstar": 0.00034742606,
        "meta_mean_motion_dot": 9.57e-06,
        "meta_mean_motion_ddot": 0,
        "tle_line1": "1 37530U 93036BNK 25347.20973573  .00000957  00000+0  34743-3 0  9990",
        "tle_line2": "2 37530  74.0355 332.7814 0025821  34.4483 341.4849 14.34504437852391"
      },
      "geometry": {
        "type": "Point",
        "coordinates": [
          -146.4503985921643,
          -72.30419219725152
        ]
      }
    },
    {
      "type": "Feature",
      "properties": {
        "norad_id": 37532,
        "name": "COSMOS 2251 DEB",
        "group": "cosmos-2251-debris",
        "lat": 69.45827067845477,
        "lon": -17.960805459884376,
        "alt_km": 753.4176301150501,
        "timestamp": "2025-12-14T20:40:32.170794+00:00",
        "meta_object_name": "COSMOS 2251 DEB",
        "meta_object_id": "1993-036BNM",
        "meta_epoch": "2025-12-12T21:39:46.748160",
        "meta_mean_motion": 14.4240789,
        "meta_eccentricity": 0.00159727,
        "meta_inclination": 74.0496,
        "meta_ra_of_asc_node": 215.4183,
        "meta_arg_of_pericenter": 316.0746,
        "meta_mean_anomaly": 59.3162,
        "meta_ephemeris_type": 0,
        "meta_classification_type": "U",
        "meta_norad_cat_id": 37532,
        "meta_element_set_no": 999,
        "meta_rev_at_epoch": 84918,
        "meta_bstar": 0.00031840212,
        "meta_mean_motion_dot": 1.028e-05,
        "meta_mean_motion_ddot": 0,
        "tle_line1": "1 37532U 93036BNM 25346.90262440  .00001028  00000+0  31840-3 0  9997",
        "tle_line2": "2 37532  74.0496 215.4183 0015972 316.0746  59.3162 14.42407890849182"
      },
      "geometry": {
        "type": "Point",
        "coordinates": [
          -17.960805459884376,
          69.45827067845477
        ]
      }
    },
    {
      "type": "Feature",
      "properties": {
        "norad_id": 37533,
        "name": "COSMOS 2251 DEB",
        "group": "cosmos-2251-debris",
        "lat": -32.74173758452912,
        "lon": 177.48483096335244,
        "alt_km": 839.3898067903419,
        "timestamp": "2025-12-14T20:40:32.170804+00:00",
        "meta_object_name": "COSMOS 2251 DEB",
        "meta_object_id": "1993-036BNN",
        "meta_epoch": "2025-12-10T19:55:37.417152",
        "meta_mean_motion": 14.12152288,
        "meta_eccentricity": 0.01580439,
        "meta_inclination": 74.0697,
        "meta_ra_of_asc_node": 195.1706,
        "meta_arg_of_pericenter": 252.2523,
        "meta_mean_anomaly": 106.1316,
        "meta_ephemeris_type": 0,
        "meta_classification_type": "U",
        "meta_norad_cat_id": 37533,
        "meta_element_set_no": 999,
        "meta_rev_at_epoch": 62894,
        "meta_bstar": 0.0019185157,
        "meta_mean_motion_dot": 3.939e-05,
        "meta_mean_motion_ddot": 0,
        "tle_line1": "1 37533U 93036BNN 25344.83029418  .00003939  00000+0  19185-2 0  9994",
        "tle_line2": "2 37533  74.0697 195.1706 0158043 252.2523 106.1316 14.12152288628948"
      },
      "geometry": {
        "type": "Point",
        "coordinates": [
          177.48483096335244,
          -32.74173758452912
        ]
      }
    },
    {
      "type": "Feature",
      "properties": {
        "norad_id": 37535,
        "name": "COSMOS 2251 DEB",
        "group": "cosmos-2251-debris",
        "lat": -55.91616388498175,
        "lon": -85.49309676301455,
        "alt_km": 688.0277467975238,
        "timestamp": "2025-12-14T20:40:32.170814+00:00",
        "meta_object_name": "COSMOS 2251 DEB",
        "meta_object_id": "1993-036BNQ",
        "meta_epoch": "2025-12-14T06:40:37.111584",
        "meta_mean_motion": 14.58472445,
        "meta_eccentricity": 0.00277154,
        "meta_inclination": 74.0242,
        "meta_ra_of_asc_node": 70.5692,
        "meta_arg_of_pericenter": 209.3673,
        "meta_mean_anomaly": 208.6523,
        "meta_ephemeris_type": 0,
        "meta_classification_type": "U",
        "meta_norad_cat_id": 37535,
        "meta_element_set_no": 999,
        "meta_rev_at_epoch": 85347,
        "meta_bstar": 0.00087743847,
        "meta_mean_motion_dot": 4.067e-05,
        "meta_mean_motion_ddot": 0,
        "tle_line1": "1 37535U 93036BNQ 25348.27820731  .00004067  00000+0  87744-3 0  9995",
        "tle_line2": "2 37535  74.0242  70.5692 0027715 209.3673 208.6523 14.58472445853472"
      },
      "geometry": {
        "type": "Point",
        "coordinates": [
          -85.49309676301455,
          -55.91616388498175
        ]
      }
    },
    {
      "type": "Feature",
      "properties": {
        "norad_id": 37537,
        "name": "COSMOS 2251 DEB",
        "group": "cosmos-2251-debris",
        "lat": -73.99887597716484,
        "lon": 169.98751386676642,
        "alt_km": 797.32446636245,
        "timestamp": "2025-12-14T20:40:32.170824+00:00",
        "meta_object_name": "COSMOS 2251 DEB",
        "meta_object_id": "1993-036BNS",
        "meta_epoch": "2025-12-11T11:15:11.696832",
        "meta_mean_motion": 14.37489039,
        "meta_eccentricity": 0.00502138,
        "meta_inclination": 74.0122,
        "meta_ra_of_asc_node": 267.468,
        "meta_arg_of_pericenter": 48.0201,
        "meta_mean_anomaly": 312.5213,
        "meta_ephemeris_type": 0,
        "meta_classification_type": "U",
        "meta_norad_cat_id": 37537,
        "meta_element_set_no": 999,
        "meta_rev_at_epoch": 85015,
        "meta_bstar": 0.0003879169,
        "meta_mean_motion_dot": 1.152e-05,
        "meta_mean_motion_ddot": 0,
        "tle_line1": "1 37537U 93036BNS 25345.46888538  .00001152  00000+0  38792-3 0  9995",
        "tle_line2": "2 37537  74.0122 267.4680 0050213  48.0201 312.5213 14.37489039850156"
      },
      "geometry": {
        "type": "Point",
        "coordinates": [
          169.98751386676642,
          -73.99887597716484
        ]
      }
    },
    {
      "type": "Feature",
      "properties": {
        "norad_id": 37546,
        "name": "COSMOS 2251 DEB",
        "group": "cosmos-2251-debris",
        "lat": -40.747129109018005,
        "lon": 79.52727868801297,
        "alt_km": 636.8068752595545,
        "timestamp": "2025-12-14T20:40:32.170834+00:00",
        "meta_object_name": "COSMOS 2251 DEB",
        "meta_object_id": "1993-036BPB",
        "meta_epoch": "2025-12-13T15:40:44.550624",
        "meta_mean_motion": 14.80580134,
        "meta_eccentricity": 0.00056627,
        "meta_inclination": 74.0221,
        "meta_ra_of_asc_node": 96.2019,
        "meta_arg_of_pericenter": 105.6347,
        "meta_mean_anomaly": 254.5455,
        "meta_ephemeris_type": 0,
        "meta_classification_type": "U",
        "meta_norad_cat_id": 37546,
        "meta_element_set_no": 999,
        "meta_rev_at_epoch": 65901,
        "meta_bstar": 0.0029558541,
        "meta_mean_motion_dot": 0.00022724,
        "meta_mean_motion_ddot": 0,
        "tle_line1": "1 37546U 93036BPB 25347.65329341  .00022724  00000+0  29559-2 0  9998",
        "tle_line2": "2 37546  74.0221  96.2019 0005662 105.6347 254.5455 14.80580134659010"
      },
      "geometry": {
        "type": "Point",
        "coordinates": [
          79.52727868801297,
          -40.747129109018005
        ]
      }
    },
    {
      "type": "Feature",
      "properties": {
        "norad_id": 37959,
        "name": "COSMOS 2251 DEB",
        "group": "cosmos-2251-debris",
        "lat": -18.689679661892253,
        "lon": 47.33491873387672,
        "alt_km": 737.4158060027912,
        "timestamp": "2025-12-14T20:40:32.170844+00:00",
        "meta_object_name": "COSMOS 2251 DEB",
        "meta_object_id": "1993-036BPJ",
        "meta_epoch": "2025-12-14T04:26:32.313408",
        "meta_mean_motion": 14.58158943,
        "meta_eccentricity": 0.00577444,
        "meta_inclination": 74.0112,
        "meta_ra_of_asc_node": 54.1893,
        "meta_arg_of_pericenter": 196.6315,
        "meta_mean_anomaly": 194.4731,
        "meta_ephemeris_type": 0,
        "meta_classification_type": "U",
        "meta_norad_cat_id": 37959,
        "meta_element_set_no": 999,
        "meta_rev_at_epoch": 80148,
        "meta_bstar": 0.00079389047,
        "meta_mean_motion_dot": 3.716e-05,
        "meta_mean_motion_ddot": 0,
        "tle_line1": "1 37959U 93036BPJ 25348.18509622  .00003716  00000+0  79389-3 0  9994",
        "tle_line2": "2 37959  74.0112  54.1893 0057744 196.6315 194.4731 14.58158943801486"
      },
      "geometry": {
        "type": "Point",
        "coordinates": [
          47.33491873387672,
          -18.689679661892253
        ]
      }
    }
  ]
}